UNKNOWN                 
1 89213U          26064.59762965  .00000543  00000+0  37449-3 0  9991
2 89213  98.7723 298.3741 0226528 259.0769  98.4831 13.91700600464192
UNKNOWN                 
1 89251U          26063.90983307  .00020889  00000+0  11807-1 0  9995
2 89251  62.4708 255.8138 2825773 108.3111 284.2893  9.26955458380791
UNKNOWN                 
1 89261U          26051.43209576  .00000802  00000+0  25036-3 0  9994
2 89261  98.1600  47.8830 0011827 311.4506  48.5668 14.43288970543860
UNKNOWN                 
1 89349U          26064.27641412  .00000380  00000+0  13014-2 0  9999
2 89349  90.2511   9.2019 0032465  49.4713 310.9227 12.96282580489448
UNKNOWN                 
1 89379U          26064.36011502  .00004616  00000+0  58760-2 0  9996
2 89379 100.4766  90.8109 0042186 275.9629  83.6703 13.63459839592037
UNKNOWN                 
1 89395U          26064.42769411  .00000336  00000+0  42661-2 0  9998
2 89395 102.3812  33.0788 0225061 344.8561 170.9253 12.01549344534674
UNKNOWN                 
1 89403U          26063.32139383  .00002117  00000+0  71106-2 0  9990
2 89403  90.2524   7.6583 0032266   8.1111 145.2340 12.98866462488414
UNKNOWN                 
1 89484U          26064.13861898  .00250054  00000+0  87450-1 0  9995
2 89484  83.9725 130.5361 2866917 276.4515  52.1963  9.29372831363010
UNKNOWN                 
1 89493U          26064.01349294  .00003343  00000+0  16358-2 0  9990
2 89493  99.0170 139.0076 0083420 166.2889 194.0578 14.16789004475598
UNKNOWN                 
1 89494U          26062.65923625  .00003414  00000+0  16716-2 0  9992
2 89494  99.0171 137.5090 0084069 170.2392 190.0439 14.16712711475259
