CCSDS_OMM_VERS = 2.0
CREATION_DATE  = 
ORIGINATOR     = 

OBJECT_NAME    = UNKNOWN
OBJECT_ID      = 
CENTER_NAME    = EARTH
REF_FRAME      = TEME
TIME_SYSTEM    = UTC
MEAN_ELEMENT_THEORY = SGP/SGP4

EPOCH          = 2026-03-05T14:20:35.201760
MEAN_MOTION    = 13.91700600
ECCENTRICITY   = .0226528
INCLINATION    = 98.7723
RA_OF_ASC_NODE = 298.3741
ARG_OF_PERICENTER = 259.0769
MEAN_ANOMALY   = 98.4831

EPHEMERIS_TYPE = 0
CLASSIFICATION_TYPE = U
NORAD_CAT_ID   = 89213
ELEMENT_SET_NO = 999
REV_AT_EPOCH   = 46419
BSTAR          = .37449E-3
MEAN_MOTION_DOT = .543E-5
MEAN_MOTION_DDOT = 0

CCSDS_OMM_VERS = 2.0
CREATION_DATE  = 
ORIGINATOR     = 

OBJECT_NAME    = UNKNOWN
OBJECT_ID      = 
CENTER_NAME    = EARTH
REF_FRAME      = TEME
TIME_SYSTEM    = UTC
MEAN_ELEMENT_THEORY = SGP/SGP4

EPOCH          = 2026-03-04T21:50:09.577248
MEAN_MOTION    = 9.26955458
ECCENTRICITY   = .2825773
INCLINATION    = 62.4708
RA_OF_ASC_NODE = 255.8138
ARG_OF_PERICENTER = 108.3111
MEAN_ANOMALY   = 284.2893

EPHEMERIS_TYPE = 0
CLASSIFICATION_TYPE = U
NORAD_CAT_ID   = 89251
ELEMENT_SET_NO = 999
REV_AT_EPOCH   = 38079
BSTAR          = .11807E-1
MEAN_MOTION_DOT = .20889E-3
MEAN_MOTION_DDOT = 0

CCSDS_OMM_VERS = 2.0
CREATION_DATE  = 
ORIGINATOR     = 

OBJECT_NAME    = UNKNOWN
OBJECT_ID      = 
CENTER_NAME    = EARTH
REF_FRAME      = TEME
TIME_SYSTEM    = UTC
MEAN_ELEMENT_THEORY = SGP/SGP4

EPOCH          = 2026-02-20T10:22:13.073664
MEAN_MOTION    = 14.43288970
ECCENTRICITY   = .0011827
INCLINATION    = 98.1600
RA_OF_ASC_NODE = 47.8830
ARG_OF_PERICENTER = 311.4506
MEAN_ANOMALY   = 48.5668

EPHEMERIS_TYPE = 0
CLASSIFICATION_TYPE = U
NORAD_CAT_ID   = 89261
ELEMENT_SET_NO = 999
REV_AT_EPOCH   = 54386
BSTAR          = .25036E-3
MEAN_MOTION_DOT = .802E-5
MEAN_MOTION_DDOT = 0

CCSDS_OMM_VERS = 2.0
CREATION_DATE  = 
ORIGINATOR     = 

OBJECT_NAME    = UNKNOWN
OBJECT_ID      = 
CENTER_NAME    = EARTH
REF_FRAME      = TEME
TIME_SYSTEM    = UTC
MEAN_ELEMENT_THEORY = SGP/SGP4

EPOCH          = 2026-03-05T06:38:02.179968
MEAN_MOTION    = 12.96282580
ECCENTRICITY   = .0032465
INCLINATION    = 90.2511
RA_OF_ASC_NODE = 9.2019
ARG_OF_PERICENTER = 49.4713
MEAN_ANOMALY   = 310.9227

EPHEMERIS_TYPE = 0
CLASSIFICATION_TYPE = U
NORAD_CAT_ID   = 89349
ELEMENT_SET_NO = 999
REV_AT_EPOCH   = 48944
BSTAR          = .13014E-2
MEAN_MOTION_DOT = .38E-5
MEAN_MOTION_DDOT = 0

CCSDS_OMM_VERS = 2.0
CREATION_DATE  = 
ORIGINATOR     = 

OBJECT_NAME    = UNKNOWN
OBJECT_ID      = 
CENTER_NAME    = EARTH
REF_FRAME      = TEME
TIME_SYSTEM    = UTC
MEAN_ELEMENT_THEORY = SGP/SGP4

EPOCH          = 2026-03-05T08:38:33.937728
MEAN_MOTION    = 13.63459839
ECCENTRICITY   = .0042186
INCLINATION    = 100.4766
RA_OF_ASC_NODE = 90.8109
ARG_OF_PERICENTER = 275.9629
MEAN_ANOMALY   = 83.6703

EPHEMERIS_TYPE = 0
CLASSIFICATION_TYPE = U
NORAD_CAT_ID   = 89379
ELEMENT_SET_NO = 999
REV_AT_EPOCH   = 59203
BSTAR          = .5876E-2
MEAN_MOTION_DOT = .4616E-4
MEAN_MOTION_DDOT = 0

CCSDS_OMM_VERS = 2.0
CREATION_DATE  = 
ORIGINATOR     = 

OBJECT_NAME    = UNKNOWN
OBJECT_ID      = 
CENTER_NAME    = EARTH
REF_FRAME      = TEME
TIME_SYSTEM    = UTC
MEAN_ELEMENT_THEORY = SGP/SGP4

EPOCH          = 2026-03-05T10:15:52.771104
MEAN_MOTION    = 12.01549344
ECCENTRICITY   = .0225061
INCLINATION    = 102.3812
RA_OF_ASC_NODE = 33.0788
ARG_OF_PERICENTER = 344.8561
MEAN_ANOMALY   = 170.9253

EPHEMERIS_TYPE = 0
CLASSIFICATION_TYPE = U
NORAD_CAT_ID   = 89395
ELEMENT_SET_NO = 999
REV_AT_EPOCH   = 53467
BSTAR          = .42661E-2
MEAN_MOTION_DOT = .336E-5
MEAN_MOTION_DDOT = 0

CCSDS_OMM_VERS = 2.0
CREATION_DATE  = 
ORIGINATOR     = 

OBJECT_NAME    = UNKNOWN
OBJECT_ID      = 
CENTER_NAME    = EARTH
REF_FRAME      = TEME
TIME_SYSTEM    = UTC
MEAN_ELEMENT_THEORY = SGP/SGP4

EPOCH          = 2026-03-04T07:42:48.426912
MEAN_MOTION    = 12.98866462
ECCENTRICITY   = .0032266
INCLINATION    = 90.2524
RA_OF_ASC_NODE = 7.6583
ARG_OF_PERICENTER = 8.1111
MEAN_ANOMALY   = 145.2340

EPHEMERIS_TYPE = 0
CLASSIFICATION_TYPE = U
NORAD_CAT_ID   = 89403
ELEMENT_SET_NO = 999
REV_AT_EPOCH   = 48841
BSTAR          = .71106E-2
MEAN_MOTION_DOT = .2117E-4
MEAN_MOTION_DDOT = 0

CCSDS_OMM_VERS = 2.0
CREATION_DATE  = 
ORIGINATOR     = 

OBJECT_NAME    = UNKNOWN
OBJECT_ID      = 
CENTER_NAME    = EARTH
REF_FRAME      = TEME
TIME_SYSTEM    = UTC
MEAN_ELEMENT_THEORY = SGP/SGP4

EPOCH          = 2026-03-05T03:19:36.679872
MEAN_MOTION    = 9.29372831
ECCENTRICITY   = .2866917
INCLINATION    = 83.9725
RA_OF_ASC_NODE = 130.5361
ARG_OF_PERICENTER = 276.4515
MEAN_ANOMALY   = 52.1963

EPHEMERIS_TYPE = 0
CLASSIFICATION_TYPE = U
NORAD_CAT_ID   = 89484
ELEMENT_SET_NO = 999
REV_AT_EPOCH   = 36301
BSTAR          = .8745E-1
MEAN_MOTION_DOT = .250054E-2
MEAN_MOTION_DDOT = 0

CCSDS_OMM_VERS = 2.0
CREATION_DATE  = 
ORIGINATOR     = 

OBJECT_NAME    = UNKNOWN
OBJECT_ID      = 
CENTER_NAME    = EARTH
REF_FRAME      = TEME
TIME_SYSTEM    = UTC
MEAN_ELEMENT_THEORY = SGP/SGP4

EPOCH          = 2026-03-05T00:19:25.790016
MEAN_MOTION    = 14.16789004
ECCENTRICITY   = .008342
INCLINATION    = 99.0170
RA_OF_ASC_NODE = 139.0076
ARG_OF_PERICENTER = 166.2889
MEAN_ANOMALY   = 194.0578

EPHEMERIS_TYPE = 0
CLASSIFICATION_TYPE = U
NORAD_CAT_ID   = 89493
ELEMENT_SET_NO = 999
REV_AT_EPOCH   = 47559
BSTAR          = .16358E-2
MEAN_MOTION_DOT = .3343E-4
MEAN_MOTION_DDOT = 0

CCSDS_OMM_VERS = 2.0
CREATION_DATE  = 
ORIGINATOR     = 

OBJECT_NAME    = UNKNOWN
OBJECT_ID      = 
CENTER_NAME    = EARTH
REF_FRAME      = TEME
TIME_SYSTEM    = UTC
MEAN_ELEMENT_THEORY = SGP/SGP4

EPOCH          = 2026-03-03T15:49:18.012000
MEAN_MOTION    = 14.16712711
ECCENTRICITY   = .0084069
INCLINATION    = 99.0171
RA_OF_ASC_NODE = 137.5090
ARG_OF_PERICENTER = 170.2392
MEAN_ANOMALY   = 190.0439

EPHEMERIS_TYPE = 0
CLASSIFICATION_TYPE = U
NORAD_CAT_ID   = 89494
ELEMENT_SET_NO = 999
REV_AT_EPOCH   = 47525
BSTAR          = .16716E-2
MEAN_MOTION_DOT = .3414E-4
MEAN_MOTION_DDOT = 0

